{
  "type": "FeatureCollection",
  "attribution": "出典: 個人で確認・入力した道路元標情報(scripts/manual_overrides/genpyo.json)",
  "features": [
    {
      "type": "Feature",
      "geometry": {
        "type": "Point",
        "coordinates": [
          139.772831,
          35.681669
        ]
      },
      "properties": {
        "name": "日本国道路元標",
        "pref": "東京都",
        "address": "東京都中央区日本橋室町1丁目(日本橋中央)",
        "note": "全国の国道の起点となる元標。実物は日本橋中央の車道上にあり、橋のたもとにレプリカが展示されている。座標はWikipedia「日本橋(東京都中央区)」記事の座標を採用。",
        "source_url": "https://ja.wikipedia.org/wiki/日本国道路元標",
        "visited_date": null
      }
    }
  ]
}
